{"type": "FeatureCollection", "features": [ {"type": "Feature", "properties": {"norad_id": 30915, "name": "FENGYUN 1C DEB", "group": "fengyun-1c-debris", "lat": 2.3692424000861654, "lon": -122.86652717615578, "alt_km": 772.8364719548526, "timestamp": "2025-12-06T16:45:43.001491+00:00", "meta": {"OBJECT_NAME": "FENGYUN 1C DEB", "OBJECT_ID": "1999-025AZD", "EPOCH": "2025-12-05T21:23:37.536288", "MEAN_MOTION": 14.24960446, "ECCENTRICITY": 0.0053806, "INCLINATION": 98.9426, "RA_OF_ASC_NODE": 55.9383, "ARG_OF_PERICENTER": 187.2258, "MEAN_ANOMALY": 172.8151, "EPHEMERIS_TYPE": 0, "CLASSIFICATION_TYPE": "U", "NORAD_CAT_ID": 30915, "ELEMENT_SET_NO": 999, "REV_AT_EPOCH": 96415, "BSTAR": 0.0027202759, "MEAN_MOTION_DOT": 6.418e-05, "MEAN_MOTION_DDOT": 0}, "tle": {"line1": "1 30915U 99025AZD 25339.89140667  .00006418  00000+0  27203-2 0  9990", "line2": "2 30915  98.9426  55.9383 0053806 187.2258 172.8151 14.24960446964156"}}, "geometry": {"type": "Point", "coordinates": [-122.86652717615578, 2.3692424000861654]}}, {"type": "Feature", "properties": {"norad_id": 30916, "name": "FENGYUN 1C DEB", "group": "fengyun-1c-debris", "lat": -34.45789429068112, "lon": -145.1941670982095, "alt_km": 847.3495331831582, "timestamp": "2025-12-06T16:45:43.001502+00:00", "meta": {"OBJECT_NAME": "FENGYUN 1C DEB", "OBJECT_ID": "1999-025AZE", "EPOCH": "2025-12-03T22:05:23.424864", "MEAN_MOTION": 14.08742079, "ECCENTRICITY": 0.0062408, "INCLINATION": 99.0032, "RA_OF_ASC_NODE": 38.2781, "ARG_OF_PERICENTER": 283.2218, "MEAN_ANOMALY": 251.3545, "EPHEMERIS_TYPE": 0, "CLASSIFICATION_TYPE": "U", "NORAD_CAT_ID": 30916, "ELEMENT_SET_NO": 999, "REV_AT_EPOCH": 95719, "BSTAR": 0.0022666, "MEAN_MOTION_DOT": 3.934e-05, "MEAN_MOTION_DDOT": 0}, "tle": {"line1": "1 30916U 99025AZE 25337.92041001  .00003934  00000+0  22666-2 0  9993", "line2": "2 30916  99.0032  38.2781 0062408 283.2218 251.3545 14.08742079957197"}}, "geometry": {"type": "Point", "coordinates": [-145.1941670982095, -34.45789429068112]}}, {"type": "Feature", "properties": {"norad_id": 30918, "name": "FENGYUN 1C DEB", "group": "fengyun-1c-debris", "lat": -21.259054430116233, "lon": -89.88635730581552, "alt_km": 849.6931200008103, "timestamp": "2025-12-06T16:45:43.001512+00:00", "meta": {"OBJECT_NAME": "FENGYUN 1C DEB", "OBJECT_ID": "1999-025AZG", "EPOCH": "2025-12-04T19:44:20.227776", "MEAN_MOTION": 13.96769696, "ECCENTRICITY": 0.0158492, "INCLINATION": 98.4163, "RA_OF_ASC_NODE": 91.6979, "ARG_OF_PERICENTER": 147.4427, "MEAN_ANOMALY": 344.5797, "EPHEMERIS_TYPE": 0, "CLASSIFICATION_TYPE": "U", "NORAD_CAT_ID": 30918, "ELEMENT_SET_NO": 999, "REV_AT_EPOCH": 94942, "BSTAR": 0.0025721918, "MEAN_MOTION_DOT": 3.935e-05, "MEAN_MOTION_DDOT": 0}, "tle": {"line1": "1 30918U 99025AZG 25338.82245634  .00003935  00000+0  25722-2 0  9990", "line2": "2 30918  98.4163  91.6979 0158492 147.4427 344.5797 13.96769696949422"}}, "geometry": {"type": "Point", "coordinates": [-89.88635730581552, -21.259054430116233]}}, {"type": "Feature", "properties": {"norad_id": 30920, "name": "FENGYUN 1C DEB", "group": "fengyun-1c-debris", "lat": 33.11754245160044, "lon": 116.09822010005884, "alt_km": 823.3651693565216, "timestamp": "2025-12-06T16:45:43.001523+00:00", "meta": {"OBJECT_NAME": "FENGYUN 1C DEB", "OBJECT_ID": "1999-025AZJ", "EPOCH": "2025-12-05T21:57:18.129024", "MEAN_MOTION": 14.16459258, "ECCENTRICITY": 0.01110375, "INCLINATION": 98.9195, "RA_OF_ASC_NODE": 121.193, "ARG_OF_PERICENTER": 118.0423, "MEAN_ANOMALY": 243.2034, "EPHEMERIS_TYPE": 0, "CLASSIFICATION_TYPE": "U", "NORAD_CAT_ID": 30920, "ELEMENT_SET_NO": 999, "REV_AT_EPOCH": 94997, "BSTAR": 0.0063852753, "MEAN_MOTION_DOT": 0.0001347, "MEAN_MOTION_DDOT": 0}, "tle": {"line1": "1 30920U 99025AZJ 25339.91479316  .00013470  00000+0  63853-2 0  9992", "line2": "2 30920  98.9195 121.1930 0111037 118.0423 243.2034 14.16459258949977"}}, "geometry": {"type": "Point", "coordinates": [116.09822010005884, 33.11754245160044]}}, {"type": "Feature", "properties": {"norad_id": 30921, "name": "FENGYUN 1C DEB", "group": "fengyun-1c-debris", "lat": -67.1895463364275, "lon": 89.78265887608347, "alt_km": 797.2933191934308, "timestamp": "2025-12-06T16:45:43.001533+00:00", "meta": {"OBJECT_NAME": "FENGYUN 1C DEB", "OBJECT_ID": "1999-025AZK", "EPOCH": "2025-12-05T19:53:12.114816", "MEAN_MOTION": 14.32636539, "ECCENTRICITY": 0.00173365, "INCLINATION": 98.8437, "RA_OF_ASC_NODE": 67.1687, "ARG_OF_PERICENTER": 59.2024, "MEAN_ANOMALY": 68.6422, "EPHEMERIS_TYPE": 0, "CLASSIFICATION_TYPE": "U", "NORAD_CAT_ID": 30921, "ELEMENT_SET_NO": 999, "REV_AT_EPOCH": 96725, "BSTAR": 0.003291812, "MEAN_MOTION_DOT": 8.924e-05, "MEAN_MOTION_DDOT": 0}, "tle": {"line1": "1 30921U 99025AZK 25339.82861244  .00008924  00000+0  32918-2 0  9994", "line2": "2 30921  98.8437  67.1687 0017336  59.2024  68.6422 14.32636539967252"}}, "geometry": {"type": "Point", "coordinates": [89.78265887608347, -67.1895463364275]}}, {"type": "Feature", "properties": {"norad_id": 30922, "name": "FENGYUN 1C DEB", "group": "fengyun-1c-debris", "lat": -27.90720493149777, "lon": 172.0920789116243, "alt_km": 847.6992976141919, "timestamp": "2025-12-06T16:45:43.001544+00:00", "meta": {"OBJECT_NAME": "FENGYUN 1C DEB", "OBJECT_ID": "1999-025AZL", "EPOCH": "2025-12-06T00:47:55.532832", "MEAN_MOTION": 14.17433054, "ECCENTRICITY": 0.0014783, "INCLINATION": 98.6405, "RA_OF_ASC_NODE": 356.0647, "ARG_OF_PERICENTER": 72.0902, "MEAN_ANOMALY": 343.8407, "EPHEMERIS_TYPE": 0, "CLASSIFICATION_TYPE": "U", "NORAD_CAT_ID": 30922, "ELEMENT_SET_NO": 999, "REV_AT_EPOCH": 96469, "BSTAR": 0.0010338866, "MEAN_MOTION_DOT": 2.055e-05, "MEAN_MOTION_DDOT": 0}, "tle": {"line1": "1 30922U 99025AZL 25340.03328163  .00002055  00000+0  10339-2 0  9990", "line2": "2 30922  98.6405 356.0647 0014783  72.0902 343.8407 14.17433054964699"}}, "geometry": {"type": "Point", "coordinates": [172.0920789116243, -27.90720493149777]}}, {"type": "Feature", "properties": {"norad_id": 30925, "name": "FENGYUN 1C DEB", "group": "fengyun-1c-debris", "lat": 41.589441115744116, "lon": -59.79602602832749, "alt_km": 755.9493601310742, "timestamp": "2025-12-06T16:45:43.001554+00:00", "meta": {"OBJECT_NAME": "FENGYUN 1C DEB", "OBJECT_ID": "1999-025AZP", "EPOCH": "2025-12-06T03:37:55.845984", "MEAN_MOTION": 14.42953919, "ECCENTRICITY": 0.00328746, "INCLINATION": 98.8832, "RA_OF_ASC_NODE": 111.6554, "ARG_OF_PERICENTER": 256.4699, "MEAN_ANOMALY": 281.3397, "EPHEMERIS_TYPE": 0, "CLASSIFICATION_TYPE": "U", "NORAD_CAT_ID": 30925, "ELEMENT_SET_NO": 999, "REV_AT_EPOCH": 96977, "BSTAR": 0.0038655378, "MEAN_MOTION_DOT": 0.00012992, "MEAN_MOTION_DDOT": 0}, "tle": {"line1": "1 30925U 99025AZP 25340.15134081  .00012992  00000+0  38655-2 0  9992", "line2": "2 30925  98.8832 111.6554 0032874 256.4699 281.3397 14.42953919969775"}}, "geometry": {"type": "Point", "coordinates": [-59.79602602832749, 41.589441115744116]}}, {"type": "Feature", "properties": {"norad_id": 30926, "name": "FENGYUN 1C DEB", "group": "fengyun-1c-debris", "lat": 0.40549372274035334, "lon": -79.30170661409807, "alt_km": 514.0366909337044, "timestamp": "2025-12-06T16:45:43.001564+00:00", "meta": {"OBJECT_NAME": "FENGYUN 1C DEB", "OBJECT_ID": "1999-025AZQ", "EPOCH": "2025-12-04T08:19:16.938048", "MEAN_MOTION": 14.89177682, "ECCENTRICITY": 0.0166696, "INCLINATION": 98.8014, "RA_OF_ASC_NODE": 278.147, "ARG_OF_PERICENTER": 48.5806, "MEAN_ANOMALY": 312.9596, "EPHEMERIS_TYPE": 0, "CLASSIFICATION_TYPE": "U", "NORAD_CAT_ID": 30926, "ELEMENT_SET_NO": 999, "REV_AT_EPOCH": 642, "BSTAR": 0.001091, "MEAN_MOTION_DOT": 0.00013332, "MEAN_MOTION_DDOT": 0}, "tle": {"line1": "1 30926U 99025AZQ 25338.34672382  .00013332  00000+0  10910-2 0  9995", "line2": "2 30926  98.8014 278.1470 0166696  48.5806 312.9596 14.89177682  6426"}}, "geometry": {"type": "Point", "coordinates": [-79.30170661409807, 0.40549372274035334]}}, {"type": "Feature", "properties": {"norad_id": 30927, "name": "FENGYUN 1C DEB", "group": "fengyun-1c-debris", "lat": 34.90598218471903, "lon": -132.46235919862363, "alt_km": 897.195882309019, "timestamp": "2025-12-06T16:45:43.001574+00:00", "meta": {"OBJECT_NAME": "FENGYUN 1C DEB", "OBJECT_ID": "1999-025AZR", "EPOCH": "2025-12-02T23:27:28.547136", "MEAN_MOTION": 14.08892452, "ECCENTRICITY": 0.00987852, "INCLINATION": 99.1836, "RA_OF_ASC_NODE": 37.2663, "ARG_OF_PERICENTER": 33.6709, "MEAN_ANOMALY": 327.0684, "EPHEMERIS_TYPE": 0, "CLASSIFICATION_TYPE": "U", "NORAD_CAT_ID": 30927, "ELEMENT_SET_NO": 999, "REV_AT_EPOCH": 95546, "BSTAR": 0.0020438482, "MEAN_MOTION_DOT": 3.651e-05, "MEAN_MOTION_DDOT": 0}, "tle": {"line1": "1 30927U 99025AZR 25336.97741374  .00003651  00000+0  20438-2 0  9990", "line2": "2 30927  99.1836  37.2663 0098785  33.6709 327.0684 14.08892452955463"}}, "geometry": {"type": "Point", "coordinates": [-132.46235919862363, 34.90598218471903]}}, {"type": "Feature", "properties": {"norad_id": 30928, "name": "FENGYUN 1C DEB", "group": "fengyun-1c-debris", "lat": -45.804146194376955, "lon": -118.37530554770515, "alt_km": 1523.4482885901707, "timestamp": "2025-12-06T16:45:43.001585+00:00", "meta": {"OBJECT_NAME": "FENGYUN 1C DEB", "OBJECT_ID": "1999-025AZS", "EPOCH": "2025-12-06T04:52:58.952640", "MEAN_MOTION": 13.22228514, "ECCENTRICITY": 0.04507559, "INCLINATION": 98.8833, "RA_OF_ASC_NODE": 70.4581, "ARG_OF_PERICENTER": 47.8581, "MEAN_ANOMALY": 343.7782, "EPHEMERIS_TYPE": 0, "CLASSIFICATION_TYPE": "U", "NORAD_CAT_ID": 30928, "ELEMENT_SET_NO": 999, "REV_AT_EPOCH": 90262, "BSTAR": 0.0012794931, "MEAN_MOTION_DOT": 8.77e-06, "MEAN_MOTION_DDOT": 0}, "tle": {"line1": "1 30928U 99025AZS 25340.20346010  .00000877  00000+0  12795-2 0  9994", "line2": "2 30928  98.8833  70.4581 0450755  47.8581 343.7782 13.22228514902620"}}, "geometry": {"type": "Point", "coordinates": [-118.37530554770515, -45.804146194376955]}}]}